NORAD_CAT_ID,OBJECT_NAME,OBJECT_TYPE,EPOCH,MEAN_MOTION,ECCENTRICITY,INCLINATION,RA_OF_ASC_NODE,ARG_OF_PERICENTER,MEAN_ANOMALY,BSTAR,MEAN_MOTION_DOT,MEAN_MOTION_DDOT,TLE_LINE0,TLE_LINE1,TLE_LINE2,SEMIMAJOR_AXIS,PERIOD,APOGEE,PERIGEE,DECAYED
52864.0,STARLINK-4267,PAYLOAD,2024-01-25 20:29:07,15.0885156,9.86e-05,53.2153,258.0074,69.2289,290.8809,-0.00010636,-1.981e-05,0.0,0 STARLINK-4267,1 52864U 22062AL  24025.85355602 -.00001981  00000-0 -10636-3 0  9994,2 52864  53.2153 258.0074 0000986  69.2289 290.8809 15.08851560 89597,6917.845,95.437,540.392,539.028,0.0
52864.0,STARLINK-4267,PAYLOAD,2024-01-25 22:04:30,15.08852161,0.0001096,53.2158,257.7079,99.1609,260.9507,-9.4596e-05,-1.793e-05,0.0,0 STARLINK-4267,1 52864U 22062AL  24025.91979343 -.00001793  00000-0 -94596-4 0  9994,2 52864  53.2158 257.7079 0001096  99.1609 260.9507 15.08852161 89113,6917.843,95.437,540.466,538.95,0.0
52864.0,STARLINK-4267,PAYLOAD,2024-01-27 13:49:08,15.08843704,0.000116,53.2162,250.2815,97.8984,262.2139,8.6347e-05,1.087e-05,0.0,0 STARLINK-4267,1 52864U 22062AL  24027.57579260  .00001087  00000-0  86347-4 0  9991,2 52864  53.2162 250.2815 0001160  97.8984 262.2139 15.08843704 89363,6917.869,95.437,540.537,538.932,0.0
52864.0,STARLINK-4267,PAYLOAD,2024-01-27 18:35:18,15.08839838,0.0001102,53.2154,249.3839,96.0556,264.0562,4.7926e-05,4.75e-06,0.0,0 STARLINK-4267,1 52864U 22062AL  24027.77451600  .00000475  00000-0  47926-4 0  9990,2 52864  53.2154 249.3839 0001102  96.0556 264.0562 15.08839838 89881,6917.881,95.438,540.508,538.984,0.0
52864.0,STARLINK-4267,PAYLOAD,2024-01-27 21:46:04,15.0883926,0.0001116,53.2155,248.7893,96.4803,263.6316,3.6758e-05,2.97e-06,0.0,0 STARLINK-4267,1 52864U 22062AL  24027.90699571  .00000297  00000-0  36758-4 0  9999,2 52864  53.2155 248.7893 0001116  96.4803 263.6316 15.08839260 89419,6917.883,95.438,540.52,538.976,0.0
52864.0,STARLINK-4267,PAYLOAD,2024-01-28 13:39:56,15.0883615,0.000124,53.2156,245.8157,103.6286,256.4844,2.8105e-05,1.59e-06,0.0,0 STARLINK-4267,1 52864U 22062AL  24028.56939840  .00000159  00000-0  28105-4 0  9992,2 52864  53.2156 245.8157 0001240 103.6286 256.4844 15.08836150 89517,6917.892,95.438,540.615,538.899,0.0
52864.0,STARLINK-4267,PAYLOAD,2024-01-28 20:01:28,15.08836611,0.0001246,53.216,244.6264,101.8344,258.2788,2.5477e-05,1.18e-06,0.0,0 STARLINK-4267,1 52864U 22062AL  24028.83435873  .00000118  00000-0  25477-4 0  9993,2 52864  53.2160 244.6264 0001246 101.8344 258.2788 15.08836611 90048,6917.891,95.438,540.618,538.894,0.0
52864.0,STARLINK-4267,PAYLOAD,2024-01-28 21:36:51,15.08836682,0.0001188,53.2158,244.3291,91.5329,268.5799,2.4243e-05,9.8e-07,0.0,0 STARLINK-4267,1 52864U 22062AL  24028.90059912  .00000098  00000-0  24243-4 0  9994,2 52864  53.2158 244.3291 0001188  91.5329 268.5799 15.08836682 89564,6917.891,95.438,540.577,538.934,0.0
52864.0,STARLINK-4267,PAYLOAD,2024-01-29 23:03:01,15.08842821,0.0001134,53.2157,239.571,94.8111,265.3011,0.00010641,1.406e-05,0.0,0 STARLINK-4267,1 52864U 22062AL  24029.96043309  .00001406  00000-0  10641-3 0  9994,2 52864  53.2157 239.5710 0001134  94.8111 265.3011 15.08842821 90219,6917.872,95.437,540.521,538.952,0.0
52864.0,STARLINK-4267,PAYLOAD,2024-01-30 13:21:30,15.08837354,9.77e-05,53.2156,236.8932,102.8448,257.2653,3.3379e-05,2.43e-06,0.0,0 STARLINK-4267,1 52864U 22062AL  24030.55659947  .00000243  00000-0  33379-4 0  9994,2 52864  53.2156 236.8932 0000977 102.8448 257.2653 15.08837354 89812,6917.888,95.438,540.429,539.078,0.0
52864.0,STARLINK-4267,PAYLOAD,2024-01-30 19:43:02,15.08838753,0.0001083,53.2152,235.7041,94.9795,265.132,5.1834e-05,5.37e-06,0.0,0 STARLINK-4267,1 52864U 22062AL  24030.82155857  .00000537  00000-0  51834-4 0  9997,2 52864  53.2152 235.7041 0001083  94.9795 265.1320 15.08838753 90345,6917.884,95.438,540.498,539.0,0.0
52864.0,STARLINK-4267,PAYLOAD,2024-01-30 21:18:25,15.08838694,0.0001134,53.2157,235.4071,90.0879,270.0243,5.2272e-05,5.44e-06,0.0,0 STARLINK-4267,1 52864U 22062AL  24030.88779872  .00000544  00000-0  52272-4 0  9997,2 52864  53.2157 235.4071 0001134  90.0879 270.0243 15.08838694 89865,6917.884,95.438,540.534,538.965,0.0
52864.0,STARLINK-4267,PAYLOAD,2024-01-31 13:12:17,15.08836557,0.0001229,53.2159,232.4347,84.7175,275.3958,5.9735e-05,6.63e-06,0.0,0 STARLINK-4267,1 52864U 22062AL  24031.55019965  .00000663  00000-0  59735-4 0  9995,2 52864  53.2159 232.4347 0001229  84.7175 275.3958 15.08836557 89962,6917.891,95.438,540.606,538.906,0.0
52864.0,STARLINK-4267,PAYLOAD,2024-02-01 16:13:50,15.08841813,0.0001264,53.2161,227.3798,80.8022,279.3113,8.4403e-05,1.056e-05,0.0,0 STARLINK-4267,1 52864U 22062AL  24032.67627646  .00001056  00000-0  84403-4 0  9997,2 52864  53.2161 227.3798 0001264  80.8022 279.3113 15.08841813 90628,6917.875,95.437,540.614,538.865,0.0
52864.0,STARLINK-4267,PAYLOAD,2024-02-01 22:35:22,15.08846182,0.0001239,53.2157,226.1894,83.6247,276.4886,0.00011198,1.495e-05,0.0,0 STARLINK-4267,1 52864U 22062AL  24032.94123214  .00001495  00000-0  11198-3 0  9996,2 52864  53.2157 226.1894 0001239  83.6247 276.4886 15.08846182 90178,6917.861,95.437,540.584,538.869,0.0
52864.0,STARLINK-4267,PAYLOAD,2024-02-02 12:53:51,15.08843071,0.0001755,53.2168,223.5105,101.8566,258.2623,4.0932e-05,3.63e-06,0.0,0 STARLINK-4267,1 52864U 22062AL  24033.53739613  .00000363  00000-0  40932-4 0  9990,2 52864  53.2168 223.5105 0001755 101.8566 258.2623 15.08843071 90267,6917.871,95.437,540.95,538.522,0.0
52864.0,STARLINK-4267,PAYLOAD,2024-02-02 17:40:00,15.0884149,0.0001502,53.2159,222.6184,106.6816,253.4341,3.228e-05,2.26e-06,0.0,0 STARLINK-4267,1 52864U 22062AL  24033.73611625  .00000226  00000-0  32280-4 0  9999,2 52864  53.2159 222.6184 0001502 106.6816 253.4341 15.08841490 90789,6917.876,95.437,540.78,538.702,0.0
52864.0,STARLINK-4267,PAYLOAD,2024-02-03 12:44:38,15.08837531,0.0001458,53.216,219.0506,103.7455,256.3699,-1.1812e-05,-4.76e-06,0.0,0 STARLINK-4267,1 52864U 22062AL  24034.53100097 -.00000476  00000-0 -11812-4 0  9991,2 52864  53.2160 219.0506 0001458 103.7455 256.3699 15.08837531 90415,6917.888,95.438,540.762,538.744,0.0
52864.0,STARLINK-4267,PAYLOAD,2024-02-03 19:06:11,15.08837832,0.0001343,53.2161,217.8631,94.2191,265.8954,-2.8027e-05,-7.34e-06,0.0,0 STARLINK-4267,1 52864U 22062AL  24034.79596199 -.00000734  00000-0 -28027-4 0  9994,2 52864  53.2161 217.8631 0001343  94.2191 265.8954 15.08837832 90946,6917.887,95.438,540.681,538.823,0.0
52864.0,STARLINK-4267,PAYLOAD,2024-02-04 12:35:26,15.08832349,0.0001256,53.2158,214.5916,91.1751,268.9385,1.5913e-05,-3.5e-07,0.0,0 STARLINK-4267,1 52864U 22062AL  24035.52460660 -.00000035  00000-0  15913-4 0  9992,2 52864  53.2158 214.5916 0001256  91.1751 268.9385 15.08832349 90561,6917.904,95.438,540.638,538.9,0.0
52864.0,STARLINK-4267,PAYLOAD,2024-02-04 18:56:58,15.08835762,0.0001305,53.2162,213.4027,92.9767,267.1375,4.3124e-05,3.98e-06,0.0,0 STARLINK-4267,1 52864U 22062AL  24035.78956466  .00000398  00000-0  43124-4 0  9990,2 52864  53.2162 213.4027 0001305  92.9767 267.1375 15.08835762 90605,6917.893,95.438,540.661,538.856,0.0
52864.0,STARLINK-4267,PAYLOAD,2024-02-05 12:26:12,15.0884093,0.0001282,53.2162,210.1311,90.7133,269.4006,0.00012042,1.629e-05,0.0,0 STARLINK-4267,1 52864U 22062AL  24036.51820045  .00001629  00000-0  12042-3 0  9997,2 52864  53.2162 210.1311 0001282  90.7133 269.4006 15.08840930 91208,6917.878,95.437,540.629,538.856,0.0
52864.0,STARLINK-4267,PAYLOAD,2024-02-05 18:47:44,15.08845598,0.00013,53.2163,208.9418,91.2011,268.913,0.00015617,2.199e-05,0.0,0 STARLINK-4267,1 52864U 22062AL  24036.78315676  .00002199  00000-0  15617-3 0  9999,2 52864  53.2163 208.9418 0001300  91.2011 268.9130 15.08845598 90750,6917.863,95.437,540.628,538.829,0.0
52864.0,STARLINK-4267,PAYLOAD,2024-02-05 21:58:30,15.08848891,0.0001234,53.2157,208.3463,92.4078,267.7055,0.00017647,2.522e-05,0.0,0 STARLINK-4267,1 52864U 22062AL  24036.91563348  .00002522  00000-0  17647-3 0  9990,2 52864  53.2157 208.3463 0001234  92.4078 267.7055 15.08848891 91268,6917.853,95.437,540.572,538.865,0.0
52864.0,STARLINK-4267,PAYLOAD,2024-02-06 10:41:37,15.0883337,9.61e-05,53.2168,205.9665,64.7576,295.3516,5.1821e-05,5.37e-06,0.0,0 STARLINK-4267,1 52864U 22062AL  24037.44556861  .00000537  00000-0  51821-4 0  9998,2 52864  53.2168 205.9665 0000961  64.7576 295.3516 15.08833370 91342,6917.901,95.438,540.43,539.101,0.0
52864.0,STARLINK-4267,PAYLOAD,2024-02-06 18:38:30,15.08861284,0.0001378,53.2164,204.4795,104.0052,256.1094,0.00022513,3.299e-05,0.0,0 STARLINK-4267,1 52864U 22062AL  24037.77674444  .00003299  00000-0  22513-3 0  9995,2 52864  53.2164 204.4795 0001378 104.0052 256.1094 15.08861284 91392,6917.815,95.436,540.634,538.727,0.0
52864.0,STARLINK-4267,PAYLOAD,2024-02-07 10:32:23,15.08844743,0.0001572,53.2164,201.5072,92.4227,267.6945,3.7442e-05,3.08e-06,0.0,0 STARLINK-4267,1 52864U 22062AL  24038.43915979  .00000308  00000-0  37442-4 0  9996,2 52864  53.2164 201.5072 0001572  92.4227 267.6945 15.08844743 91492,6917.866,95.437,540.818,538.643,0.0
52864.0,STARLINK-4267,PAYLOAD,2024-02-07 18:29:19,15.0884386,0.0001464,53.2167,200.0192,78.5808,281.5348,-1.2511e-05,-4.87e-06,0.0,0 STARLINK-4267,1 52864U 22062AL  24038.77036228 -.00000487  00000-0 -12511-4 0  9994,2 52864  53.2167 200.0192 0001464  78.5808 281.5348 15.08843860 91055,6917.869,95.437,540.746,538.721,0.0
52864.0,STARLINK-4267,PAYLOAD,2024-02-08 10:23:10,15.08839629,0.0001484,53.2173,197.0477,86.6179,273.4983,8.9565e-05,1.138e-05,0.0,0 STARLINK-4267,1 52864U 22062AL  24039.43276316  .00001138  00000-0  89565-4 0  9997,2 52864  53.2173 197.0477 0001484  86.6179 273.4983 15.08839629 91644,6917.882,95.438,540.773,538.72,0.0
52864.0,STARLINK-4267,PAYLOAD,2024-02-08 16:44:42,15.0884852,0.0001754,53.2172,195.8584,72.8331,287.2853,0.00011256,1.504e-05,0.0,0 STARLINK-4267,1 52864U 22062AL  24039.69771819  .00001504  00000-0  11256-3 0  9991,2 52864  53.2172 195.8584 0001754  72.8331 287.2853 15.08848520 91688,6917.854,95.437,540.933,538.506,0.0
